{
    "links": {
        "self": "http://www.neowsapp.com/rest/v1/neo/3632237?api_key=iIulBulltgU6a56xZRHN4H3l9WmuAYTsLGpBGhQ2"
    },
    "id": "3632237",
    "neo_reference_id": "3632237",
    "name": "(2013 EJ89)",
    "designation": "2013 EJ89",
    "nasa_jpl_url": "http://ssd.jpl.nasa.gov/sbdb.cgi?sstr=3632237",
    "absolute_magnitude_h": 24.3,
    "estimated_diameter": {
        "kilometers": {
            "estimated_diameter_min": 0.0366906138,
            "estimated_diameter_max": 0.0820427065
        },
        "meters": {
            "estimated_diameter_min": 36.6906137531,
            "estimated_diameter_max": 82.0427064882
        },
        "miles": {
            "estimated_diameter_min": 0.0227984834,
            "estimated_diameter_max": 0.0509789586
        },
        "feet": {
            "estimated_diameter_min": 120.3760332259,
            "estimated_diameter_max": 269.1689931548
        }
    },
    "is_potentially_hazardous_asteroid": false,
    "close_approach_data": [
        {
            "close_approach_date": "2013-04-08",
            "close_approach_date_full": "2013-Apr-08 16:17",
            "epoch_date_close_approach": 1365437820000,
            "relative_velocity": {
                "kilometers_per_second": "9.071514213",
                "kilometers_per_hour": "32657.4511667824",
                "miles_per_hour": "20292.0701430488"
            },
            "miss_distance": {
                "astronomical": "0.0706876517",
                "lunar": "27.4974965113",
                "kilometers": "10574722.129621879",
                "miles": "6570827.6380207702"
            },
            "orbiting_body": "Earth"
        },
        {
            "close_approach_date": "2180-04-19",
            "close_approach_date_full": "2180-Apr-19 08:41",
            "epoch_date_close_approach": 6636415260000,
            "relative_velocity": {
                "kilometers_per_second": "7.3491109185",
                "kilometers_per_hour": "26456.7993067293",
                "miles_per_hour": "16439.226213673"
            },
            "miss_distance": {
                "astronomical": "0.0908372216",
                "lunar": "35.3356792024",
                "kilometers": "13589054.868077992",
                "miles": "8443847.1486286096"
            },
            "orbiting_body": "Earth"
        }
    ],
    "orbital_data": {
        "orbit_id": "9",
        "orbit_determination_date": "2017-04-06 08:46:28",
        "first_observation_date": "2013-03-13",
        "last_observation_date": "2013-03-31",
        "data_arc_in_days": 18,
        "observations_used": 30,
        "orbit_uncertainty": "8",
        "minimum_orbit_intersection": ".0700754",
        "jupiter_tisserand_invariant": "4.435",
        "epoch_osculation": "2456366.5",
        "eccentricity": ".3721827945577579",
        "semi_major_axis": "1.51140994019076",
        "inclination": "7.403948033774013",
        "ascending_node_longitude": "350.998809733023",
        "orbital_period": "678.6906061242335",
        "perihelion_distance": ".9488891649281893",
        "perihelion_argument": "254.1270614016119",
        "aphelion_distance": "2.073930715453331",
        "perihelion_time": "2456429.892542252356",
        "mean_anomaly": "326.3744937606065",
        "mean_motion": ".5304331557730482",
        "equinox": "J2000",
        "orbit_class": {
            "orbit_class_type": "APO",
            "orbit_class_description": "Near-Earth asteroid orbits which cross the Earth’s orbit similar to that of 1862 Apollo",
            "orbit_class_range": "a (semi-major axis) > 1.0 AU; q (perihelion) < 1.017 AU"
        }
    },
    "is_sentry_object": false
}